*******************************************************************************
Ephemeris / WWW_USER Mon Mar 24 08:53:07 2025 Pasadena, USA      / Horizons    
*******************************************************************************
Target body name: (2018 PC20)                     {source: JPL#4}
Center body name: Earth (399)                     {source: DE441}
Center-site name: Mauna Kea
*******************************************************************************
Start time      : A.D. 2019-Jan-05 04:06:00.0000 UT      
Stop  time      : A.D. 2019-Jan-05 16:47:00.0000 UT      
Step-size       : 1 minutes
*******************************************************************************
Target pole/equ : undefined
Target radii    : undefined                                                    
Center geodetic : 204.5278, 19.8260847, 4.21024   {E-lon(deg),Lat(deg),Alt(km)}
Center cylindric: 204.5278, 6006.35451, 2151.0229 {E-lon(deg),Dxy(km),Dz(km)}
Center pole/equ : ITRF93                          {East-longitude positive}
Center radii    : 6378.137, 6378.137, 6356.752 km {Equator_a, b, pole_c}       
Target primary  : Sun
Vis. interferer : MOON (R_eq= 1737.400) km        {source: DE441}
Rel. light bend : Sun                             {source: DE441}
Rel. lght bnd GM: 1.3271E+11 km^3/s^2                                          
Small-body perts: Yes                             {source: SB441-N16}
Atmos refraction: NO (AIRLESS)
RA format       : HMS
Time format     : CAL 
Calendar mode   : Mixed Julian/Gregorian
RTS-only print  : NO       
EOP file        : eop.250321.p250617                                           
EOP coverage    : DATA-BASED 1962-JAN-20 TO 2025-MAR-21. PREDICTS-> 2025-JUN-16
Units conversion: 1 au= 149597870.700 km, c= 299792.458 km/s, 1 day= 86400.0 s 
Table cut-offs 1: Elevation (-90.0deg=NO ),Airmass (>38.000=NO), Daylight (YES)
Table cut-offs 2: Solar elongation (  0.0,180.0=NO ),Local Hour Angle( 0.0=NO )
Table cut-offs 3: RA/DEC angular rate (     0.0=NO )                           
*******************************************************************************
Initial IAU76/J2000 heliocentric ecliptic osculating elements (au, days, deg.):
  EPOCH=  2458343.5 ! 2018-Aug-13.00 (TDB)         Residual RMS= .24519        
   EC= .404352607301711    QR= 1.018354806317198   TP= 2458318.6524357731      
   OM= 139.299704166656    W=  153.5303944744985   IN= 8.986086735514593       
  Equivalent ICRF heliocentric cartesian coordinates (au, au/d):
   X= 8.116079301925467E-01  Y=-6.140581064636024E-01  Z=-2.698058679324596E-01
  VX= 1.436448164656351E-02 VY= 1.329561442287599E-02 VZ= 2.429594529488231E-03
Asteroid physical parameters (km, seconds, rotational period in hours):        
   GM= n.a.                RAD= n.a.               ROTPER= n.a.                
   H= 25.2                 G= .150                 B-V= n.a.                   
                           ALBEDO= n.a.            STYP= n.a.                  
*******************************************************************************
 Date__(UT)__HR:MN     R.A._________(ICRF)_________DEC
******************************************************
$$SOE
 2019-Jan-05 12:18     01 33 32.200144 -02 32 39.62243
 2019-Jan-05 12:19     01 33 32.259652 -02 32 39.00404
 2019-Jan-05 12:20     01 33 32.319166 -02 32 38.38565
 2019-Jan-05 12:21     01 33 32.378688 -02 32 37.76726
 2019-Jan-05 12:22     01 33 32.438217 -02 32 37.14888
 2019-Jan-05 12:23     01 33 32.497753 -02 32 36.53050
 2019-Jan-05 12:24     01 33 32.557297 -02 32 35.91213
 2019-Jan-05 12:25     01 33 32.616847 -02 32 35.29376
 2019-Jan-05 12:26     01 33 32.676405 -02 32 34.67539
 2019-Jan-05 12:27     01 33 32.735969 -02 32 34.05703
 2019-Jan-05 12:28     01 33 32.795541 -02 32 33.43867
 2019-Jan-05 12:29     01 33 32.855120 -02 32 32.82031
 2019-Jan-05 12:30     01 33 32.914706 -02 32 32.20196
 2019-Jan-05 12:31     01 33 32.974299 -02 32 31.58361
 2019-Jan-05 12:32     01 33 33.033899 -02 32 30.96527
 2019-Jan-05 12:33     01 33 33.093506 -02 32 30.34693
 2019-Jan-05 12:34     01 33 33.153120 -02 32 29.72859
 2019-Jan-05 12:35     01 33 33.212741 -02 32 29.11026
 2019-Jan-05 12:36     01 33 33.272369 -02 32 28.49193
 2019-Jan-05 12:37     01 33 33.332004 -02 32 27.87361
 2019-Jan-05 12:38     01 33 33.391646 -02 32 27.25529
 2019-Jan-05 12:39     01 33 33.451295 -02 32 26.63697
 2019-Jan-05 12:40     01 33 33.510951 -02 32 26.01866
 2019-Jan-05 12:41     01 33 33.570614 -02 32 25.40035
 2019-Jan-05 12:42     01 33 33.630284 -02 32 24.78204
 2019-Jan-05 12:43     01 33 33.689960 -02 32 24.16374
 2019-Jan-05 12:44     01 33 33.749644 -02 32 23.54545
 2019-Jan-05 12:45     01 33 33.809334 -02 32 22.92716
 2019-Jan-05 12:46     01 33 33.869031 -02 32 22.30887
 2019-Jan-05 12:47     01 33 33.928735 -02 32 21.69059
 2019-Jan-05 12:48     01 33 33.988446 -02 32 21.07231
 2019-Jan-05 12:49     01 33 34.048164 -02 32 20.45403
 2019-Jan-05 12:50     01 33 34.107888 -02 32 19.83576
 2019-Jan-05 12:51     01 33 34.167620 -02 32 19.21749
 2019-Jan-05 12:52     01 33 34.227358 -02 32 18.59923
 2019-Jan-05 12:53     01 33 34.287102 -02 32 17.98097
 2019-Jan-05 12:54     01 33 34.346854 -02 32 17.36272
 2019-Jan-05 12:55     01 33 34.406612 -02 32 16.74447
 2019-Jan-05 12:56     01 33 34.466377 -02 32 16.12622
 2019-Jan-05 12:57     01 33 34.526149 -02 32 15.50798
 2019-Jan-05 12:58     01 33 34.585927 -02 32 14.88975
 2019-Jan-05 12:59     01 33 34.645712 -02 32 14.27152
 2019-Jan-05 13:00     01 33 34.705503 -02 32 13.65329
 2019-Jan-05 13:01     01 33 34.765301 -02 32 13.03506
 2019-Jan-05 13:02     01 33 34.825106 -02 32 12.41685
 2019-Jan-05 13:03     01 33 34.884917 -02 32 11.79863
 2019-Jan-05 13:04     01 33 34.944735 -02 32 11.18042
 2019-Jan-05 13:05     01 33 35.004560 -02 32 10.56222
 2019-Jan-05 13:06     01 33 35.064391 -02 32 09.94401
 2019-Jan-05 13:07     01 33 35.124228 -02 32 09.32582
 2019-Jan-05 13:08     01 33 35.184072 -02 32 08.70763
 2019-Jan-05 13:09     01 33 35.243922 -02 32 08.08944
 2019-Jan-05 13:10     01 33 35.303779 -02 32 07.47126
 2019-Jan-05 13:11     01 33 35.363642 -02 32 06.85308
 2019-Jan-05 13:12     01 33 35.423512 -02 32 06.23491
 2019-Jan-05 13:13     01 33 35.483388 -02 32 05.61674
 2019-Jan-05 13:14     01 33 35.543271 -02 32 04.99857
 2019-Jan-05 13:15     01 33 35.603160 -02 32 04.38041
 2019-Jan-05 13:16     01 33 35.663055 -02 32 03.76226
 2019-Jan-05 13:17     01 33 35.722956 -02 32 03.14411
 2019-Jan-05 13:18     01 33 35.782864 -02 32 02.52596
 2019-Jan-05 13:19     01 33 35.842778 -02 32 01.90782
 2019-Jan-05 13:20     01 33 35.902699 -02 32 01.28969
 2019-Jan-05 13:21     01 33 35.962626 -02 32 00.67155
 2019-Jan-05 13:22     01 33 36.022558 -02 32 00.05343
 2019-Jan-05 13:23     01 33 36.082498 -02 31 59.43531
 2019-Jan-05 13:24     01 33 36.142443 -02 31 58.81719
 2019-Jan-05 13:25     01 33 36.202394 -02 31 58.19908
 2019-Jan-05 13:26     01 33 36.262352 -02 31 57.58097
 2019-Jan-05 13:27     01 33 36.322316 -02 31 56.96287
 2019-Jan-05 13:28     01 33 36.382286 -02 31 56.34477
 2019-Jan-05 13:29     01 33 36.442262 -02 31 55.72668
 2019-Jan-05 13:30     01 33 36.502244 -02 31 55.10859
 2019-Jan-05 13:31     01 33 36.562232 -02 31 54.49051
 2019-Jan-05 13:32     01 33 36.622226 -02 31 53.87243
 2019-Jan-05 13:33     01 33 36.682226 -02 31 53.25436
 2019-Jan-05 13:34     01 33 36.742232 -02 31 52.63629
 2019-Jan-05 13:35     01 33 36.802244 -02 31 52.01822
 2019-Jan-05 13:36     01 33 36.862263 -02 31 51.40017
 2019-Jan-05 13:37     01 33 36.922287 -02 31 50.78211
 2019-Jan-05 13:38     01 33 36.982316 -02 31 50.16407
 2019-Jan-05 13:39     01 33 37.042352 -02 31 49.54602
 2019-Jan-05 13:40     01 33 37.102394 -02 31 48.92799
 2019-Jan-05 13:41     01 33 37.162442 -02 31 48.30995
 2019-Jan-05 13:42     01 33 37.222495 -02 31 47.69192
 2019-Jan-05 13:43     01 33 37.282554 -02 31 47.07390
 2019-Jan-05 13:44     01 33 37.342619 -02 31 46.45588
 2019-Jan-05 13:45     01 33 37.402690 -02 31 45.83787
 2019-Jan-05 13:46     01 33 37.462766 -02 31 45.21987
 2019-Jan-05 13:47     01 33 37.522848 -02 31 44.60186
 2019-Jan-05 13:48     01 33 37.582936 -02 31 43.98387
 2019-Jan-05 13:49     01 33 37.643030 -02 31 43.36587
 2019-Jan-05 13:50     01 33 37.703129 -02 31 42.74789
 2019-Jan-05 13:51     01 33 37.763234 -02 31 42.12991
 2019-Jan-05 13:52     01 33 37.823344 -02 31 41.51193
 2019-Jan-05 13:53     01 33 37.883460 -02 31 40.89396
 2019-Jan-05 13:54     01 33 37.943582 -02 31 40.27600
 2019-Jan-05 13:55     01 33 38.003709 -02 31 39.65804
 2019-Jan-05 13:56     01 33 38.063841 -02 31 39.04008
 2019-Jan-05 13:57     01 33 38.123979 -02 31 38.42213
 2019-Jan-05 13:58     01 33 38.184123 -02 31 37.80419
 2019-Jan-05 13:59     01 33 38.244272 -02 31 37.18625
 2019-Jan-05 14:00     01 33 38.304427 -02 31 36.56831
 2019-Jan-05 14:01     01 33 38.364586 -02 31 35.95039
 2019-Jan-05 14:02     01 33 38.424752 -02 31 35.33246
 2019-Jan-05 14:03     01 33 38.484922 -02 31 34.71455
 2019-Jan-05 14:04     01 33 38.545098 -02 31 34.09663
 2019-Jan-05 14:05     01 33 38.605279 -02 31 33.47873
 2019-Jan-05 14:06     01 33 38.665466 -02 31 32.86083
 2019-Jan-05 14:07     01 33 38.725657 -02 31 32.24293
 2019-Jan-05 14:08     01 33 38.785854 -02 31 31.62504
 2019-Jan-05 14:09     01 33 38.846057 -02 31 31.00716
 2019-Jan-05 14:10     01 33 38.906264 -02 31 30.38928
 2019-Jan-05 14:11     01 33 38.966476 -02 31 29.77140
 2019-Jan-05 14:12     01 33 39.026694 -02 31 29.15353
 2019-Jan-05 14:13     01 33 39.086917 -02 31 28.53567
 2019-Jan-05 14:14     01 33 39.147145 -02 31 27.91781
 2019-Jan-05 14:15     01 33 39.207378 -02 31 27.29996
 2019-Jan-05 14:16     01 33 39.267615 -02 31 26.68212
 2019-Jan-05 14:17     01 33 39.327858 -02 31 26.06428
 2019-Jan-05 14:18     01 33 39.388106 -02 31 25.44644
 2019-Jan-05 14:19     01 33 39.448359 -02 31 24.82861
 2019-Jan-05 14:20     01 33 39.508617 -02 31 24.21079
